OBJECT_NAME,OBJECT_ID,EPOCH,MEAN_MOTION,ECCENTRICITY,INCLINATION,RA_OF_ASC_NODE,ARG_OF_PERICENTER,MEAN_ANOMALY,EPHEMERIS_TYPE,CLASSIFICATION_TYPE,NORAD_CAT_ID,ELEMENT_SET_NO,REV_AT_EPOCH,BSTAR,MEAN_MOTION_DOT,MEAN_MOTION_DDOT
SL-14 R/B,1990-010B,2026-06-19T11:03:44.066016,14.83647419,.00189024,82.5015,171.8095,328.5074,31.5008,0,U,20466,999,94357,.31194904E-4,.282E-5,0
SL-14 R/B,1990-018B,2026-06-19T13:50:27.597120,14.82217417,.00175553,82.5211,127.8742,114.4546,245.8502,0,U,20511,999,93767,.35373299E-4,.307E-5,0
HST,1990-037B,2026-06-19T19:35:22.030080,15.30772013,.0001666,28.4721,62.6068,170.6657,189.3970,0,U,20580,999,78897,.16558E-3,.53E-4,0
SL-16 R/B,1990-046B,2026-06-19T11:49:59.621088,14.15027214,.00131565,71.0001,84.1054,158.2930,201.8753,0,U,20625,999,86279,.37859216E-4,.26E-6,0
COSMOS 2084,1990-055A,2026-06-19T17:12:49.002048,15.06124709,.0005675,62.7899,347.4552,283.2686,76.7782,0,U,20663,999,95168,.1204E-3,.1568E-4,0
SL-6 R/B(2),1990-055D,2026-06-19T13:49:11.435520,15.04009338,.00410442,62.7822,267.2481,5.4872,354.6669,0,U,20666,999,95351,.91758802E-4,.1088E-4,0
SL-8 R/B,1990-078B,2026-06-19T11:23:30.808896,14.92414285,.03503498,82.9018,159.5784,30.7761,331.3492,0,U,20775,999,82446,.62227166E-3,.22061E-3,0
SL-8 R/B,1991-006B,2026-06-19T18:03:55.033056,13.77506058,.0023768,82.9425,94.1253,107.7634,322.6955,0,U,21088,999,77812,.45322E-4,.61E-6,0
OKEAN-3,1991-039A,2026-06-19T17:32:42.314784,15.05335385,.0013823,82.5163,237.9148,348.6162,11.4750,0,U,21397,999,88038,.15863E-3,.2302E-4,0
COSMOS 2151,1991-042A,2026-06-19T19:03:18.679680,15.00444144,.0013766,82.4961,345.1649,76.2201,284.0554,0,U,21422,999,87850,.78855E-4,.1021E-4,0
SL-14 R/B,1991-042B,2026-06-19T14:00:34.788672,14.81903690,.00154208,82.4928,124.6481,266.1929,93.7522,0,U,21423,999,86816,.32662914E-4,.282E-5,0
ERS-1,1991-050A,2026-06-19T16:00:36.023040,14.39518241,.0030728,98.7796,191.4258,259.3155,100.4571,0,U,21574,999,83040,.54397E-4,.124E-5,0
ARIANE 40 R/B,1991-050F,2026-06-19T16:25:01.424064,14.42958271,.0004324,98.1874,219.0037,116.0201,244.1435,0,U,21610,999,83370,.694E-4,.191E-5,0
INTERCOSMOS 25,1991-086A,2026-06-19T12:07:42.729024,12.12198919,.14839644,82.6052,248.4070,257.3886,85.7779,0,U,21819,999,50902,.16048497E-3,.805E-5,0
SL-8 R/B,1992-008B,2026-06-19T12:50:50.498880,13.75977557,.00339846,82.9260,192.0417,207.9918,261.7256,0,U,21876,999,72342,.11444237E-3,.127E-5,0
SL-8 R/B,1992-020B,2026-06-19T17:44:05.172864,13.75549124,.0029563,82.9306,77.9622,15.5822,13.5367,0,U,21938,999,71516,.61978E-4,.75E-6,0
USA 81,1992-023A,2026-06-19T10:34:09.988032,14.32398757,.00027484,85.0074,72.7071,82.6810,277.4695,0,U,21949,999,10935,.44966067E-4,.141E-5,0
COSMOS 2219,1992-076A,2026-06-19T07:30:21.471264,14.14100467,.00167006,71.0581,165.6281,40.7258,319.5110,0,U,22219,999,73274,.19006028E-3,.315E-5,0
SL-16 R/B,1992-076B,2026-06-19T17:13:08.563008,14.16873520,.0014742,71.0007,333.4507,295.3066,150.2758,0,U,22220,999,73628,.14675E-3,.247E-5,0
COSMOS 2221,1992-080A,2026-06-19T13:06:20.960352,14.96537995,.0013475,82.5028,181.5045,203.9046,156.1553,0,U,22236,999,79602,.88106609E-4,.1029E-4,0
SL-16 R/B,1992-093B,2026-06-19T08:42:02.401920,14.15460289,.00038382,71.0196,150.8244,184.3807,175.7283,0,U,22285,999,72754,-.91609492E-4,-.227E-5,0
COSMOS 2228,1992-094A,2026-06-19T18:14:50.637120,14.97594252,.0016667,82.5175,139.5781,323.1735,36.8342,0,U,22286,999,79133,.12479E-3,.1487E-4,0
SL-16 R/B,1993-016B,2026-06-19T16:42:33.318144,14.15315343,.0010066,71.0085,0.9368,179.9697,180.1428,0,U,22566,999,71660,.94044E-4,.136E-5,0
COSMOS 2242,1993-024A,2026-06-19T09:16:50.639808,14.96909187,.00151618,82.5179,169.4385,328.4519,31.5792,0,U,22626,999,79560,.10993261E-3,.129E-4,0
SL-16 R/B,1993-059B,2026-06-19T07:47:59.989632,14.17248060,.00152868,70.9886,156.7954,50.3136,309.9333,0,U,22803,999,69393,-.60637722E-4,-.171E-5,0
ARIANE 40 R/B,1993-061H,2026-06-19T17:15:39.713760,14.32908819,.0010295,98.4819,237.5237,348.7520,11.3433,0,U,22830,999,70871,.61932E-4,.126E-5,0
COSMOS 2278,1994-023A,2026-06-19T19:01:49.149408,14.14398712,.0010596,71.0551,321.4726,240.3885,119.6183,0,U,23087,999,65924,.30939E-4,.12E-6,0
SL-16 R/B,1994-023B,2026-06-19T12:15:30.846816,14.15026523,.00026011,70.9992,217.0517,185.1508,174.9588,0,U,23088,999,66049,.10025838E-3,.147E-5,0
SL-16 R/B,1994-074B,2026-06-19T14:12:41.431680,14.79504029,.0005217,97.6989,197.2130,243.4082,231.4393,0,U,23343,999,70231,.44603888E-4,.284E-5,0
SL-16 R/B,1994-077B,2026-06-19T07:28:17.419008,14.15572971,.00030066,70.9812,138.6935,326.4595,33.6337,0,U,23405,999,63061,.13069582E-3,.208E-5,0
