SL-14 R/B               
1 20466U 90010B   26170.46092669  .00000282  00000+0  31195-4 0  9990
2 20466  82.5015 171.8095 0018902 328.5074  31.5008 14.83647419943573
SL-14 R/B               
1 20511U 90018B   26170.57670830  .00000307  00000+0  35373-4 0  9993
2 20511  82.5211 127.8742 0017555 114.4546 245.8502 14.82217417937674
HST                     
1 20580U 90037B   26170.81622720  .00005300  00000+0  16558-3 0  9993
2 20580  28.4721  62.6068 0001666 170.6657 189.3970 15.30772013788975
SL-16 R/B               
1 20625U 90046B   26170.49305117  .00000026  00000+0  37859-4 0  9993
2 20625  71.0001  84.1054 0013156 158.2930 201.8753 14.15027214862797
COSMOS 2084             
1 20663U 90055A   26170.71723382  .00001568  00000+0  12040-3 0  9994
2 20663  62.7899 347.4552 0005675 283.2686  76.7782 15.06124709951689
SL-6 R/B(2)             
1 20666U 90055D   26170.57582680  .00001088  00000+0  91759-4 0  9997
2 20666  62.7822 267.2481 0041044   5.4872 354.6669 15.04009338953513
SL-8 R/B                
1 20775U 90078B   26170.47466214  .00022061  00000+0  62227-3 0  9997
2 20775  82.9018 159.5784 0350349  30.7761 331.3492 14.92414285824467
SL-8 R/B                
1 21088U 91006B   26170.75272029  .00000061  00000+0  45322-4 0  9991
2 21088  82.9425  94.1253 0023768 107.7634 322.6955 13.77506058778128
OKEAN-3                 
1 21397U 91039A   26170.73104531  .00002302  00000+0  15863-3 0  9996
2 21397  82.5163 237.9148 0013823 348.6162  11.4750 15.05335385880383
COSMOS 2151             
1 21422U 91042A   26170.79396620  .00001021  00000+0  78855-4 0  9995
2 21422  82.4961 345.1649 0013766  76.2201 284.0554 15.00444144878509
SL-14 R/B               
1 21423U 91042B   26170.58373598  .00000282  00000+0  32663-4 0  9997
2 21423  82.4928 124.6481 0015420 266.1929  93.7522 14.81903690868168
ERS-1                   
1 21574U 91050A   26170.66708360  .00000124  00000+0  54397-4 0  9994
2 21574  98.7796 191.4258 0030728 259.3155 100.4571 14.39518241830408
ARIANE 40 R/B           
1 21610U 91050F   26170.68404426  .00000191  00000+0  69400-4 0  9998
2 21610  98.1874 219.0037 0004324 116.0201 244.1435 14.42958271833702
INTERCOSMOS 25          
1 21819U 91086A   26170.50535566  .00000805  00000+0  16048-3 0  9990
2 21819  82.6052 248.4070 1483964 257.3886  85.7779 12.12198919509027
SL-8 R/B                
1 21876U 92008B   26170.53530670  .00000127  00000+0  11444-3 0  9994
2 21876  82.9260 192.0417 0033984 207.9918 261.7256 13.75977557723423
SL-8 R/B                
1 21938U 92020B   26170.73894876  .00000075  00000+0  61978-4 0  9990
2 21938  82.9306  77.9622 0029563  15.5822  13.5367 13.75549124715160
USA 81                  
1 21949U 92023A   26170.44039338  .00000141  00000+0  44966-4 0  9999
2 21949  85.0074  72.7071 0002748  82.6810 277.4695 14.32398757109358
COSMOS 2219             
1 22219U 92076A   26170.31274851  .00000315  00000+0  19006-3 0  9994
2 22219  71.0581 165.6281 0016700  40.7258 319.5110 14.14100467732740
SL-16 R/B               
1 22220U 92076B   26170.71746022  .00000247  00000+0  14675-3 0  9995
2 22220  71.0007 333.4507 0014742 295.3066 150.2758 14.16873520736280
COSMOS 2221             
1 22236U 92080A   26170.54607593  .00001029  00000+0  88107-4 0  9998
2 22236  82.5028 181.5045 0013475 203.9046 156.1553 14.96537995796028
SL-16 R/B               
1 22285U 92093B   26170.36252780 -.00000227  00000+0 -91609-4 0  9992
2 22285  71.0196 150.8244 0003838 184.3807 175.7283 14.15460289727540
COSMOS 2228             
1 22286U 92094A   26170.76030830  .00001487  00000+0  12479-3 0  9992
2 22286  82.5175 139.5781 0016667 323.1735  36.8342 14.97594252791331
SL-16 R/B               
1 22566U 93016B   26170.69621896  .00000136  00000+0  94044-4 0  9997
2 22566  71.0085   0.9368 0010066 179.9697 180.1428 14.15315343716605
COSMOS 2242             
1 22626U 93024A   26170.38669722  .00001290  00000+0  10993-3 0  9991
2 22626  82.5179 169.4385 0015161 328.4519  31.5792 14.96909187795602
SL-16 R/B               
1 22803U 93059B   26170.32499988 -.00000171  00000+0 -60638-4 0  9996
2 22803  70.9886 156.7954 0015286  50.3136 309.9333 14.17248060693935
ARIANE 40 R/B           
1 22830U 93061H   26170.71920965  .00000126  00000+0  61932-4 0  9992
2 22830  98.4819 237.5237 0010295 348.7520  11.3433 14.32908819708714
COSMOS 2278             
1 23087U 94023A   26170.79292997  .00000012  00000+0  30939-4 0  9998
2 23087  71.0551 321.4726 0010596 240.3885 119.6183 14.14398712659242
SL-16 R/B               
1 23088U 94023B   26170.51077369  .00000147  00000+0  10026-3 0  9996
2 23088  70.9992 217.0517 0002601 185.1508 174.9588 14.15026523660495
SL-16 R/B               
1 23343U 94074B   26170.59214620  .00000284  00000+0  44604-4 0  9999
2 23343  97.6989 197.2130 0005217 243.4082 231.4393 14.79504029702315
SL-16 R/B               
1 23405U 94077B   26170.31131272  .00000208  00000+0  13070-3 0  9990
2 23405  70.9812 138.6935 0003006 326.4595  33.6337 14.15572971630614
